{
  "type": "FeatureCollection",
  "features": [
    {
      "type": "Feature",
      "properties": {
        "norad_id": 33886,
        "name": "IRIDIUM 33 DEB",
        "group": "iridium-33-debris",
        "lat": -75.46781646928352,
        "lon": 50.475992328533835,
        "alt_km": 775.0731694060432,
        "timestamp": "2025-12-18T23:35:49.447174+00:00",
        "meta_object_name": "IRIDIUM 33 DEB",
        "meta_object_id": "1997-051BF",
        "meta_epoch": "2025-12-18T14:28:13.300608",
        "meta_mean_motion": 14.36058761,
        "meta_eccentricity": 0.0012784,
        "meta_inclination": 86.3827,
        "meta_ra_of_asc_node": 64.761,
        "meta_arg_of_pericenter": 220.4973,
        "meta_mean_anomaly": 258.7568,
        "meta_ephemeris_type": 0,
        "meta_classification_type": "U",
        "meta_norad_cat_id": 33886,
        "meta_element_set_no": 999,
        "meta_rev_at_epoch": 88136,
        "meta_bstar": 0.00015317423,
        "meta_mean_motion_dot": 4.65e-06,
        "meta_mean_motion_ddot": 0,
        "tle_line1": "1 33886U 97051BF  25352.60293172  .00000465  00000+0  15317-3 0  9991",
        "tle_line2": "2 33886  86.3827  64.7610 0012784 220.4973 258.7568 14.36058761881365"
      },
      "geometry": {
        "type": "Point",
        "coordinates": [
          50.475992328533835,
          -75.46781646928352
        ]
      }
    },
    {
      "type": "Feature",
      "properties": {
        "norad_id": 33887,
        "name": "IRIDIUM 33 DEB",
        "group": "iridium-33-debris",
        "lat": -66.28734758698339,
        "lon": -170.8360818798232,
        "alt_km": 772.4724942989506,
        "timestamp": "2025-12-18T23:35:49.447185+00:00",
        "meta_object_name": "IRIDIUM 33 DEB",
        "meta_object_id": "1997-051BG",
        "meta_epoch": "2025-12-18T12:59:41.582400",
        "meta_mean_motion": 14.37226103,
        "meta_eccentricity": 0.00050195,
        "meta_inclination": 86.3041,
        "meta_ra_of_asc_node": 0.8919,
        "meta_arg_of_pericenter": 202.838,
        "meta_mean_anomaly": 279.4165,
        "meta_ephemeris_type": 0,
        "meta_classification_type": "U",
        "meta_norad_cat_id": 33887,
        "meta_element_set_no": 999,
        "meta_rev_at_epoch": 88248,
        "meta_bstar": 0.00011794042,
        "meta_mean_motion_dot": 3.71e-06,
        "meta_mean_motion_ddot": 0,
        "tle_line1": "1 33887U 97051BG  25352.54145350  .00000371  00000+0  11794-3 0  9990",
        "tle_line2": "2 33887  86.3041   0.8919 0005019 202.8380 279.4165 14.37226103882481"
      },
      "geometry": {
        "type": "Point",
        "coordinates": [
          -170.8360818798232,
          -66.28734758698339
        ]
      }
    },
    {
      "type": "Feature",
      "properties": {
        "norad_id": 33953,
        "name": "IRIDIUM 33 DEB",
        "group": "iridium-33-debris",
        "lat": 30.706840634546023,
        "lon": -131.0821344495896,
        "alt_km": 701.2311776583392,
        "timestamp": "2025-12-18T23:35:49.447195+00:00",
        "meta_object_name": "IRIDIUM 33 DEB",
        "meta_object_id": "1997-051BN",
        "meta_epoch": "2025-12-18T15:14:55.461696",
        "meta_mean_motion": 14.5537891,
        "meta_eccentricity": 0.00180649,
        "meta_inclination": 86.3845,
        "meta_ra_of_asc_node": 51.2209,
        "meta_arg_of_pericenter": 84.8917,
        "meta_mean_anomaly": 42.7226,
        "meta_ephemeris_type": 0,
        "meta_classification_type": "U",
        "meta_norad_cat_id": 33953,
        "meta_element_set_no": 999,
        "meta_rev_at_epoch": 88389,
        "meta_bstar": 0.00081934216,
        "meta_mean_motion_dot": 3.584e-05,
        "meta_mean_motion_ddot": 0,
        "tle_line1": "1 33953U 97051BN  25352.63536414  .00003584  00000+0  81934-3 0  9991",
        "tle_line2": "2 33953  86.3845  51.2209 0018064  84.8917  42.7226 14.55378910883896"
      },
      "geometry": {
        "type": "Point",
        "coordinates": [
          -131.0821344495896,
          30.706840634546023
        ]
      }
    },
    {
      "type": "Feature",
      "properties": {
        "norad_id": 33960,
        "name": "IRIDIUM 33 DEB",
        "group": "iridium-33-debris",
        "lat": -84.8796207514142,
        "lon": 153.55598126065357,
        "alt_km": 623.6880949457527,
        "timestamp": "2025-12-18T23:35:49.447207+00:00",
        "meta_object_name": "IRIDIUM 33 DEB",
        "meta_object_id": "1997-051BV",
        "meta_epoch": "2025-12-18T06:57:12.542400",
        "meta_mean_motion": 14.854684,
        "meta_eccentricity": 0.00074505,
        "meta_inclination": 86.2539,
        "meta_ra_of_asc_node": 286.8965,
        "meta_arg_of_pericenter": 53.039,
        "meta_mean_anomaly": 107.3954,
        "meta_ephemeris_type": 0,
        "meta_classification_type": "U",
        "meta_norad_cat_id": 33960,
        "meta_element_set_no": 999,
        "meta_rev_at_epoch": 88949,
        "meta_bstar": 0.0027672748,
        "meta_mean_motion_dot": 0.00023957,
        "meta_mean_motion_ddot": 0,
        "tle_line1": "1 33960U 97051BV  25352.28972850  .00023957  00000+0  27673-2 0  9993",
        "tle_line2": "2 33960  86.2539 286.8965 0007450  53.0390 107.3954 14.85468400889493"
      },
      "geometry": {
        "type": "Point",
        "coordinates": [
          153.55598126065357,
          -84.8796207514142
        ]
      }
    },
    {
      "type": "Feature",
      "properties": {
        "norad_id": 33966,
        "name": "IRIDIUM 33 DEB",
        "group": "iridium-33-debris",
        "lat": 33.94253458206122,
        "lon": -139.0861328627926,
        "alt_km": 719.5288669892207,
        "timestamp": "2025-12-18T23:35:49.447217+00:00",
        "meta_object_name": "IRIDIUM 33 DEB",
        "meta_object_id": "1997-051CB",
        "meta_epoch": "2025-12-18T15:23:51.544320",
        "meta_mean_motion": 14.49616316,
        "meta_eccentricity": 0.00080643,
        "meta_inclination": 86.3918,
        "meta_ra_of_asc_node": 43.4945,
        "meta_arg_of_pericenter": 169.3872,
        "meta_mean_anomaly": 354.7755,
        "meta_ephemeris_type": 0,
        "meta_classification_type": "U",
        "meta_norad_cat_id": 33966,
        "meta_element_set_no": 999,
        "meta_rev_at_epoch": 88527,
        "meta_bstar": 0.00039110994,
        "meta_mean_motion_dot": 1.522e-05,
        "meta_mean_motion_ddot": 0,
        "tle_line1": "1 33966U 97051CB  25352.64156880  .00001522  00000+0  39111-3 0  9991",
        "tle_line2": "2 33966  86.3918  43.4945 0008064 169.3872 354.7755 14.49616316885274"
      },
      "geometry": {
        "type": "Point",
        "coordinates": [
          -139.0861328627926,
          33.94253458206122
        ]
      }
    },
    {
      "type": "Feature",
      "properties": {
        "norad_id": 34071,
        "name": "IRIDIUM 33 DEB",
        "group": "iridium-33-debris",
        "lat": -29.583893166150528,
        "lon": -162.8058223695698,
        "alt_km": 736.7647335647298,
        "timestamp": "2025-12-18T23:35:49.447227+00:00",
        "meta_object_name": "IRIDIUM 33 DEB",
        "meta_object_id": "1997-051CE",
        "meta_epoch": "2025-12-18T14:21:00.592128",
        "meta_mean_motion": 14.49489321,
        "meta_eccentricity": 0.00099496,
        "meta_inclination": 86.345,
        "meta_ra_of_asc_node": 15.282,
        "meta_arg_of_pericenter": 91.6671,
        "meta_mean_anomaly": 268.5673,
        "meta_ephemeris_type": 0,
        "meta_classification_type": "U",
        "meta_norad_cat_id": 34071,
        "meta_element_set_no": 999,
        "meta_rev_at_epoch": 88419,
        "meta_bstar": 0.00044954259,
        "meta_mean_motion_dot": 1.742e-05,
        "meta_mean_motion_ddot": 0,
        "tle_line1": "1 34071U 97051CE  25352.59792352  .00001742  00000+0  44954-3 0  9998",
        "tle_line2": "2 34071  86.3450  15.2820 0009949  91.6671 268.5673 14.49489321884194"
      },
      "geometry": {
        "type": "Point",
        "coordinates": [
          -162.8058223695698,
          -29.583893166150528
        ]
      }
    },
    {
      "type": "Feature",
      "properties": {
        "norad_id": 34077,
        "name": "IRIDIUM 33 DEB",
        "group": "iridium-33-debris",
        "lat": 37.15937061260585,
        "lon": 51.50341900512584,
        "alt_km": 668.4252254767871,
        "timestamp": "2025-12-18T23:35:49.447239+00:00",
        "meta_object_name": "IRIDIUM 33 DEB",
        "meta_object_id": "1997-051CL",
        "meta_epoch": "2025-12-18T15:47:52.285920",
        "meta_mean_motion": 14.64897264,
        "meta_eccentricity": 0.00095369,
        "meta_inclination": 86.3856,
        "meta_ra_of_asc_node": 48.9006,
        "meta_arg_of_pericenter": 20.7053,
        "meta_mean_anomaly": 103.9539,
        "meta_ephemeris_type": 0,
        "meta_classification_type": "U",
        "meta_norad_cat_id": 34077,
        "meta_element_set_no": 999,
        "meta_rev_at_epoch": 88419,
        "meta_bstar": 0.00073197929,
        "meta_mean_motion_dot": 3.936e-05,
        "meta_mean_motion_ddot": 0,
        "tle_line1": "1 34077U 97051CL  25352.65824405  .00003936  00000+0  73198-3 0  9995",
        "tle_line2": "2 34077  86.3856  48.9006 0009536  20.7053 103.9539 14.64897264884197"
      },
      "geometry": {
        "type": "Point",
        "coordinates": [
          51.50341900512584,
          37.15937061260585
        ]
      }
    }
  ]
}